ESTCUBE 1               
1 39161U 13021C   21169.16363120  .00000205  00000-0  39931-4 0  9994
2 39161  97.9375 250.3372 0010181 143.0626 217.1285 14.72487463435854